[{"OBJECT_NAME":"STARLINK-4347","OBJECT_ID":"2022-077AK","EPOCH":"2026-03-09T22:19:15.004992","MEAN_MOTION":15.01261216,"ECCENTRICITY":0.00027224,"INCLINATION":97.6031,"RA_OF_ASC_NODE":250.4472,"ARG_OF_PERICENTER":150.2729,"MEAN_ANOMALY":209.8651,"EPHEMERIS_TYPE":0,"CLASSIFICATION_TYPE":"U","NORAD_CAT_ID":53076,"ELEMENT_SET_NO":999,"REV_AT_EPOCH":20095,"BSTAR":2.0561618e-5,"MEAN_MOTION_DOT":2.06e-6,"MEAN_MOTION_DDOT":0},{"OBJECT_NAME":"PEGASUS DEB","OBJECT_ID":"1994-029FZ","EPOCH":"2026-03-09T12:36:59.566752","MEAN_MOTION":14.41175502,"ECCENTRICITY":0.02757153,"INCLINATION":81.7972,"RA_OF_ASC_NODE":78.8441,"ARG_OF_PERICENTER":112.9537,"MEAN_ANOMALY":15.5013,"EPHEMERIS_TYPE":0,"CLASSIFICATION_TYPE":"U","NORAD_CAT_ID":24126,"ELEMENT_SET_NO":999,"REV_AT_EPOCH":53960,"BSTAR":0.0010536774,"MEAN_MOTION_DOT":5.383e-5,"MEAN_MOTION_DDOT":0}]
